satname,norad_id,inclination_deg,eccentricity,mean_motion_rev_per_day,perigee_km,apogee_km,l1,l2
STARLINK-1470,45772,53.0521,0.000728,15.21176044,497.28313318293385,507.30103793150556,1 45772U 20038AU  25352.57889844  .00014984  00000+0  67661-3 0  9992,2 45772  53.0521 188.7823 0007280  97.7108 262.4715 15.21176044304701
STARLINK-1482,45773,53.0519,0.0001393,15.06392285,546.2704990550965,548.1999077509645,1 45773U 20038AV  25352.31111919  .00002993  00000+0  21977-3 0  9993,2 45773  53.0519 201.9385 0001393  92.3006 267.8142 15.06392285304496
STARLINK-1496,45780,53.0544,5.1e-05,15.12354548,528.6693658315735,529.3738960119272,1 45780U 20038BC  25352.66667824  .00069739  00000+0  39542-2 0  9997,2 45780  53.0544 200.2963 0000510 203.7128 129.2524 15.12354548  5804
STARLINK-1497,45781,53.0324,0.0001465,15.69622943,358.98875220672653,360.96301928225057,1 45781U 20038BD  25352.66667824  .00179678  00000+0  14611-2 0  9992,2 45781  53.0324 126.7222 0001465 101.0729 108.2664 15.69622943  5977
STARLINK-1510,45784,53.0214,0.0006451,15.96128097,280.874411128515,289.47141357743294,1 45784U 20038BG  25352.66667824  .00456233  95996-4  10836-2 0  9998,2 45784  53.0214  95.8480 0006451 326.9723 320.5057 15.96128097  5901
STARLINK-1513,45786,53.0537,0.0001524,15.06408078,546.1313807952156,548.2422194894989,1 45786U 20038BJ  25352.57281755  .00001876  00000+0  14480-3 0  9991,2 45786  53.0537 200.7659 0001524  99.2658 260.8503 15.06408078304533
STARLINK-1522,46027,53.0549,0.0001301,15.06399582,546.3118510343102,548.1138270624306,1 46027U 20055A   25352.61981549  .00000111  00000+0  26324-4 0  9994,2 46027  53.0549 130.5530 0001301  96.6590 263.4547 15.06399582296662
STARLINK-1523,46028,53.055,0.0001011,15.06392948,546.533016462593,547.9333263112467,1 46028U 20055B   25352.56821731 -.00000013  00000+0  17984-4 0  9999,2 46028  53.0550 130.7893 0001011  98.7045 261.4059 15.06392948296671
STARLINK-1526,46029,53.0552,0.0001153,15.06396518,546.4237358681394,548.0207237065288,1 46029U 20055C   25352.56084087 -.00000259  00000+0  15173-5 0  9996,2 46029  53.0552 130.8184 0001153  92.5783 267.5338 15.06396518296669
STARLINK-1555,46032,53.0544,0.0001392,15.06399348,546.2495474276657,548.177565022519,1 46032U 20055F   25352.61244650  .00000387  00000+0  44851-4 0  9995,2 46032  53.0544 130.5850 0001392  99.0382 261.0764 15.06399348296670
STARLINK-1556,46033,53.0538,0.0001161,15.0640103,546.4043685373517,548.0124337394955,1 46033U 20055G   25352.59401283  .00000767  00000+0  70387-4 0  9995,2 46033  53.0538 130.6698 0001161  82.8604 277.2517 15.06401030296640
STARLINK-1557,46034,53.0554,0.0001308,15.06399999,546.3057254113555,548.1173965949129,1 46034U 20055H   25352.53135059 -.00000596  00000+0 -21138-4 0  9997,2 46034  53.0554 130.9513 0001308  85.2038 274.9100 15.06399999296630
STARLINK-1558,46035,53.054,0.0001111,15.06395053,546.4573119129991,547.9961277315442,1 46035U 20055J   25352.60507230 -.00001311  00000+0 -69175-4 0  9999,2 46035  53.0540 130.6229 0001111  91.2045 268.9071 15.06395053296675
STARLINK-1560,46036,53.0544,0.0001336,15.06400061,546.2861444397067,548.1365975244335,1 46036U 20055K   25352.59033548  .00001394  00000+0  11249-3 0  9991,2 46036  53.0544 130.6898 0001336  80.6525 279.4616 15.06400061296674
STARLINK-1567,46038,53.0543,0.0001332,15.06403622,546.278002102903,548.1229120014632,1 46038U 20055M   25352.60139686  .00002745  00000+0  20308-3 0  9992,2 46038  53.0543 130.6381 0001332  79.1871 280.9268 15.06403622296660
STARLINK-1569,46039,53.0548,0.000134,15.0639579,546.2964625762024,548.1524594477542,1 46039U 20055N   25352.60875256 -.00000826  00000+0 -36584-4 0  9997,2 46039  53.0548 130.6038 0001340  92.1871 267.9271 15.06395790296664
STARLINK-1582,46043,53.0553,0.0001222,15.0640018,546.3647287378926,548.0572837906238,1 46043U 20055S   25352.61613394  .00000770  00000+0  70598-4 0  9995,2 46043  53.0553 130.5715 0001222  83.0910 277.0218 15.06400180296661
STARLINK-1591,46045,53.0561,0.0001501,15.06393987,546.1904893938026,548.2694845632932,1 46045U 20055U   25352.64193232 -.00000105  00000+0  11855-4 0  9998,2 46045  53.0561 130.4538 0001501  83.7341 276.3819 15.06393987296653
STARLINK-1524,46047,53.0546,0.0001247,15.06398365,546.3529773922737,548.0801605723782,1 46047U 20055W   25352.59493620 -.00000006  00000+0  18495-4 0  9995,2 46047  53.0546 120.6668 0001247  83.0722 277.0409 15.06398365296801
STARLINK-1527,46048,53.0556,0.0001541,15.06392894,546.1661373215238,548.3005364593546,1 46048U 20055X   25352.59124818 -.00000182  00000+0  66688-5 0  9999,2 46048  53.0556 120.6833 0001541  79.5399 280.5764 15.06392894296785
STARLINK-1540,46051,53.0556,0.000116,15.06396048,546.4203284378136,548.0270121133171,1 46051U 20055AA  25352.55807384 -.00000944  00000+0 -44494-4 0  9992,2 46051  53.0556 120.8333 0001160  96.8223 263.2899 15.06396048296817
STARLINK-1541,46052,53.056,0.0001109,15.06391952,546.4682001184256,548.004247899511,1 46052U 20055AB  25352.60967594 -.00000854  00000+0 -38486-4 0  9993,2 46052  53.0560 120.5984 0001109  93.9966 266.1150 15.06391952296784
STARLINK-1543,46053,53.0562,0.0001233,15.06386993,546.3975224142378,548.1053231993028,1 46053U 20055AC  25352.61336445  .00000549  00000+0  55731-4 0  9991,2 46053  53.0562 120.5818 0001233  88.5319 271.5812 15.06386993296811
STARLINK-1548,46054,53.0546,0.0001214,15.06391225,546.3977116001033,548.0791927598939,1 46054U 20055AD  25352.55438822 -.00000619  00000+0 -22705-4 0  9992,2 46054  53.0546 120.8472 0001214  86.2989 273.8139 15.06391225296800
STARLINK-1554,46055,53.0544,0.0001595,15.06391563,546.1328190294234,548.3420134682074,1 46055U 20055AE  25352.60599264 -.00000530  00000+0 -16662-4 0  9994,2 46055  53.0544 120.6165 0001595  89.8634 270.2538 15.06391563296814
STARLINK-1564,46058,53.0566,0.0001353,15.06394645,546.2909684101551,548.1649721711156,1 46058U 20055AH  25352.61710857 -.00000249  00000+0  21910-5 0  9990,2 46058  53.0566 121.0294 0001353  84.1448 275.9695 15.06394645296801
STARLINK-1570,46059,53.0547,0.0001072,15.06398447,546.4739197880408,547.9587155393474,1 46059U 20055AJ  25352.58018804 -.00000466  00000+0 -12407-4 0  9992,2 46059  53.0547 120.7360 0001072  88.1042 272.0070 15.06398447296767
STARLINK-1572,46060,53.0556,0.000121,15.06396014,546.3858058274136,548.0617431348392,1 46060U 20055AK  25352.64284999  .00000311  00000+0  39743-4 0  9990,2 46060  53.0556 120.4507 0001210  86.5646 273.5481 15.06396014296787
